BEIDOU-2 IGSO-1 (C06)   
1 36828U 10036A   26166.92185411 -.00000073  00000+0  00000+0 0  9998
2 36828  54.3019 162.9711 0059298 225.1772 315.5729  1.00272283 58085
BEIDOU-2 G4 (C04)       
1 37210U 10057A   26167.04431740 -.00000115  00000+0  00000+0 0  9997
2 37210   3.6435  68.9483 0005289 196.8372 174.4901  1.00270712 57282
BEIDOU-2 IGSO-2 (C07)   
1 37256U 10068A   26166.85415660 -.00000214  00000+0  00000+0 0  9990
2 37256  47.5513 271.8488 0055907 212.6889 194.9404  1.00282881 56787
BEIDOU-2 IGSO-3 (C08)   
1 37384U 11013A   26165.58618677 -.00000189  00000+0  00000+0 0  9996
2 37384  62.4034  40.1764 0034371 184.2029 357.3112  1.00267759 55630
BEIDOU-2 IGSO-4 (C09)   
1 37763U 11038A   26166.86900419  .00000029  00000+0  00000+0 0  9996
2 37763  54.5998 165.6847 0159543 231.3979 273.2630  1.00285205 54630
BEIDOU-2 IGSO-5 (C10)   
1 37948U 11073A   26166.77611045 -.00000167  00000+0  00000+0 0  9998
2 37948  47.6807 271.5633 0113929 221.6546 141.9816  1.00273002 53129
BEIDOU-2 G5 (C05)       
1 38091U 12008A   26167.12621043  .00000055  00000+0  00000+0 0  9991
2 38091   3.5705  69.6984 0009127 272.6469  26.1427  1.00271533 52359
BEIDOU-2 M3 (C11)       
1 38250U 12018A   26167.11475854 -.00000071  00000+0  00000+0 0  9994
2 38250  55.7590 304.9118 0020107 274.0322  85.7212  1.86229792 95923
BEIDOU-2 M4 (C12)       
1 38251U 12018B   26167.04705756 -.00000071  00000+0  00000+0 0  9994
2 38251  55.6594 304.1282 0011298 275.8686  83.9863  1.86229400 95922
BEIDOU-2 M6 (C14)       
1 38775U 12050B   26164.07202103 -.00000056  00000+0  00000+0 0  9992
2 38775  56.5408  63.0305 0013772 356.7295   3.2873  1.86230840 93236
BEIDOU-2 G6 (C02)       
1 38953U 12059A   26166.84599159 -.00000178  00000+0  00000+0 0  9991
2 38953   4.4170  73.5329 0009592 324.3186 254.8650  1.00272204 49895
BEIDOU-3S IGSO-1S (C31) 
1 40549U 15019A   26166.84191791 -.00000176  00000+0  00000+0 0  9992
2 40549  49.1979 295.4779 0039128 191.2662 172.0144  1.00250248 41068
BEIDOU-3S M2S (C58)     
1 40748U 15037A   26167.24943955 -.00000070  00000+0  00000+0 0  9998
2 40748  54.8724 302.0792 0008379 259.1051 100.7870  1.86232022 74109
BEIDOU-3S M1S (C57)     
1 40749U 15037B   26166.38318008 -.00000069  00000+0  00000+0 0  9996
2 40749  54.8691 302.0961 0003458  61.7517 298.2671  1.86254745 74094
BEIDOU-3S IGSO-2S (C56) 
1 40938U 15053A   26166.82613653 -.00000128  00000+0  00000+0 0  9993
2 40938  49.2239 258.7990 0065676 192.1192 205.8375  1.00258936 39343
BEIDOU-2 IGSO-6 (C13)   
1 41434U 16021A   26167.12386227 -.00000150  00000+0  00000+0 0  9994
2 41434  60.2243  38.0497 0057184 231.4868 132.3999  1.00259474 37472
BEIDOU-2 G7 (C03)       
1 41586U 16037A   26167.06512367 -.00000354  00000+0  00000+0 0  9994
2 41586   1.7177  69.3744 0006517 355.9793 332.8617  1.00273948  6877
BEIDOU-3 M1 (C19)       
1 43001U 17069A   26167.05913703 -.00000050  00000+0  00000+0 0  9995
2 43001  56.6914  63.1220 0010416 325.8468  34.1241  1.86230800 58582
BEIDOU-3 M2 (C20)       
1 43002U 17069B   26166.99787615 -.00000050  00000+0  00000+0 0  9999
2 43002  56.6897  63.1605 0009202 351.0266   8.9945  1.86230738 58577
BEIDOU-3 M7 (C27)       
1 43107U 18003A   26167.27659787 -.00000071  00000+0  00000+0 0  9997
2 43107  54.3293 302.3474 0004873  93.9647 266.0776  1.86228067 57338
BEIDOU-3 M8 (C28)       
1 43108U 18003B   26166.68442619 -.00000071  00000+0  00000+0 0  9996
2 43108  54.3221 302.3497 0002596 261.7329  98.2226  1.86230980 57339
BEIDOU-3 M4 (C22)       
1 43207U 18018A   26167.12742264 -.00000050  00000+0  00000+0 0  9998
2 43207  56.6499  63.1838 0007711  19.0983 340.9685  1.86230832 56720
BEIDOU-3 M3 (C21)       
1 43208U 18018B   26164.50910292 -.00000055  00000+0  00000+0 0  9991
2 43208  56.6473  63.2743 0008681 341.1223  18.8726  1.86230755 56677
BEIDOU-3 M9 (C29)       
1 43245U 18029A   26166.87474098 -.00000068  00000+0  00000+0 0  9999
2 43245  54.1952 299.9946 0000998 157.7583 202.2335  1.86228026 55873
BEIDOU-3 M10 (C30)      
1 43246U 18029B   26166.80910538 -.00000068  00000+0  00000+0 0  9997
2 43246  54.1929 300.0239 0003824  39.5387 320.4763  1.86229169 55852
BEIDOU-2 IGSO-7 (C16)   
1 43539U 18057A   26166.92202744 -.00000027  00000+0  00000+0 0  9994
2 43539  55.1938 163.0687 0105067 238.0100 305.1025  1.00251416 29110
BEIDOU-3 M5 (C23)       
1 43581U 18062A   26167.03318775  .00000073  00000+0  00000+0 0  9992
2 43581  54.0851 182.3434 0005538 288.6554  71.3241  1.86228715 53613
BEIDOU-3 M6 (C24)       
1 43582U 18062B   26166.35970745  .00000083  00000+0  00000+0 0  9999
2 43582  54.0850 182.3554 0004918   8.9960 351.0582  1.86227634 53605
BEIDOU-3 M12 (C26)      
1 43602U 18067A   26165.76115788  .00000093  00000+0  00000+0 0  9990
2 43602  54.1799 181.1228 0007735  29.8475 330.2441  1.86227714 53072
BEIDOU-3 M11 (C25)      
1 43603U 18067B   26165.35925920  .00000099  00000+0  00000+0 0  9999
2 43603  54.1775 181.0999 0004437  12.9310 347.1309  1.86227183 53090
BEIDOU-3 M13 (C32)      
1 43622U 18072A   26166.92498194 -.00000051  00000+0  00000+0 0  9997
2 43622  56.6234  62.7019 0007311 328.8537  31.1409  1.86231268 52639
BEIDOU-3 M14 (C33)      
1 43623U 18072B   26166.25345462 -.00000052  00000+0  00000+0 0  9994
2 43623  56.6245  62.7184 0006162 359.3015   0.7328  1.86231360 52611
BEIDOU-3 M16 (C35)      
1 43647U 18078A   26166.94574844 -.00000068  00000+0  00000+0 0  9997
2 43647  54.0911 300.0295 0007191  40.9079 319.1335  1.86232180 52139
BEIDOU-3 M15 (C34)      
1 43648U 18078B   26165.46418844 -.00000068  00000+0  00000+0 0  9991
2 43648  54.0883 300.0818 0004204  57.5981 302.4264  1.86232267 52128
BEIDOU-3 G1 (C59)       
1 43683U 18085A   26167.21747650 -.00000111  00000+0  00000+0 0  9992
2 43683   2.8649  97.3998 0008055 349.3336  56.0067  1.00270368 28055
BEIDOU-3 M17 (C36)      
1 43706U 18093A   26167.30959620  .00000069  00000+0  00000+0 0  9990
2 43706  54.1690 182.3259 0010161 292.0051 116.9455  1.86228323 51524
BEIDOU-3 M18 (C37)      
1 43707U 18093B   26167.09989449  .00000072  00000+0  00000+0 0  9993
2 43707  54.1695 182.3252 0007997 320.4570  39.5237  1.86226619 51511
BEIDOU-3 IGSO-1 (C38)   
1 44204U 19023A   26157.95428288 -.00000215  00000+0  00000+0 0  9993
2 44204  58.6799  37.7569 0025434 225.6649  92.8731  1.00294886  7105
BEIDOU-2 G8 (C01)       
1 44231U 19027A   26167.21444316 -.00000249  00000+0  00000+0 0  9994
2 44231   1.6549  74.4918 0010211 281.8355 129.9032  1.00271018 26072
BEIDOU-3 IGSO-2 (C39)   
1 44337U 19035A   26165.62361995 -.00000071  00000+0  00000+0 0  9997
2 44337  55.2456 158.8849 0039904 216.4592 231.8306  1.00267330 25649
BEIDOU-3 M24 (C46)      
1 44542U 19061A   26167.16854632  .00000072  00000+0  00000+0 0  9990
2 44542  54.3962 182.7624 0008294 358.7070   1.3305  1.86229155 45777
BEIDOU-3 M23 (C45)      
1 44543U 19061B   26166.22778992  .00000086  00000+0  00000+0 0  9996
2 44543  54.3948 182.7623 0005651 338.0000  22.9166  1.86227199 45768
BEIDOU-3 M22 (C44)      
1 44793U 19078A   26166.47137539 -.00000068  00000+0  00000+0 0  9995
2 44793  53.9376 299.8887 0006440  50.5495 309.4939  1.86227266 44617
BEIDOU-3 M21 (C43)      
1 44794U 19078B   26164.46345251 -.00000068  00000+0  00000+0 0  9995
2 44794  53.9128 299.9208 0004278  48.5109 311.5090  1.86227756 44589
BEIDOU-3 M19 (C41)      
1 44864U 19090A   26165.52330763 -.00000053  00000+0  00000+0 0  9991
2 44864  56.5562  62.8792 0017922 297.9457 249.9520  1.86231333 44183
BEIDOU-3 M20 (C42)      
1 44865U 19090B   26166.44845134 -.00000051  00000+0  00000+0 0  9995
2 44865  56.5591  62.8831 0015700 311.8905 225.8558  1.86231059 44185
BEIDOU-3 G2 (C60)       
1 45344U 20017A   26167.05914363 -.00000142  00000+0  00000+0 0  9999
2 45344   2.8614  47.3166 0002018  32.3100 286.0776  1.00272071 23247
BEIDOU-3 G3 (C61)       
1 45807U 20040A   26167.06512367 -.00000355  00000+0  00000+0 0  9994
2 45807   2.4438  67.4376 0002378 335.0646 355.7999  1.00267007 22056
BEIDOU-3 G4 (C62)       
1 56564U 23066A   26167.25023300 -.00000281  00000+0  00000+0 0  9990
2 56564   0.4878 331.2352 0004306 181.6751 341.7169  1.00273942 11388
BEIDOU-3 M28 (C50)      
1 58654U 23207A   26164.00359830 -.00000057  00000+0  00000+0 0  9990
2 58654  55.7492  62.4443 0003374 346.0621  13.9544  1.86229633 16760
BEIDOU-3 M26 (C48)      
1 58655U 23207B   26167.02285833 -.00000053  00000+0  00000+0 0  9993
2 58655  55.7540  62.3289 0003160 319.7508  40.2636  1.86229663 16809
BEIDOU-3 M25 (C47)      
1 61186U 24168B   26166.91584368 -.00000070  00000+0  00000+0 0  9994
2 61186  54.4746 302.2864 0002971 300.8355 104.7824  1.86229777 11762
BEIDOU-3 M27 (C49)      
1 61187U 24168C   26166.64921141 -.00000070  00000+0  00000+0 0  9999
2 61187  54.4702 302.2787 0001579  51.2024 310.6804  1.86229845  9233
